[{"OBJECT_NAME":"STARLINK-4022","OBJECT_ID":"2022-052AH","EPOCH":"2025-07-31T12:46:59.958624","MEAN_MOTION":15.08841447,"ECCENTRICITY":0.0001413,"INCLINATION":53.2167,"RA_OF_ASC_NODE":181.895,"ARG_OF_PERICENTER":91.6897,"MEAN_ANOMALY":268.4257,"EPHEMERIS_TYPE":0,"CLASSIFICATION_TYPE":"U","NORAD_CAT_ID":52629,"ELEMENT_SET_NO":999,"REV_AT_EPOCH":17760,"BSTAR":5.9317e-6,"MEAN_MOTION_DOT":-1.94e-6,"MEAN_MOTION_DDOT":0},{"OBJECT_NAME":"STARLINK-3989","OBJECT_ID":"2022-052AJ","EPOCH":"2025-07-31T14:43:36.039648","MEAN_MOTION":15.08834736,"ECCENTRICITY":0.0001201,"INCLINATION":53.2172,"RA_OF_ASC_NODE":181.5723,"ARG_OF_PERICENTER":94.5471,"MEAN_ANOMALY":265.5658,"EPHEMERIS_TYPE":0,"CLASSIFICATION_TYPE":"U","NORAD_CAT_ID":52630,"ELEMENT_SET_NO":999,"REV_AT_EPOCH":17761,"BSTAR":2.9567e-5,"MEAN_MOTION_DOT":1.83e-6,"MEAN_MOTION_DDOT":0},{"OBJECT_NAME":"STARLINK-3794","OBJECT_ID":"2022-052AK","EPOCH":"2025-07-31T08:02:13.822944","MEAN_MOTION":15.08839163,"ECCENTRICITY":0.000121,"INCLINATION":53.2164,"RA_OF_ASC_NODE":182.8291,"ARG_OF_PERICENTER":81.4799,"MEAN_ANOMALY":278.633,"EPHEMERIS_TYPE":0,"CLASSIFICATION_TYPE":"U","NORAD_CAT_ID":52631,"ELEMENT_SET_NO":999,"REV_AT_EPOCH":17758,"BSTAR":2.3437e-5,"MEAN_MOTION_DOT":8.5e-7,"MEAN_MOTION_DDOT":0},{"OBJECT_NAME":"STARLINK-3995","OBJECT_ID":"2022-052AL","EPOCH":"2025-07-31T14:38:17.772288","MEAN_MOTION":15.08837917,"ECCENTRICITY":0.000131,"INCLINATION":53.216,"RA_OF_ASC_NODE":181.5861,"ARG_OF_PERICENTER":80.6721,"MEAN_ANOMALY":279.442,"EPHEMERIS_TYPE":0,"CLASSIFICATION_TYPE":"U","NORAD_CAT_ID":52632,"ELEMENT_SET_NO":999,"REV_AT_EPOCH":17762,"BSTAR":-9.1746e-6,"MEAN_MOTION_DOT":-4.34e-6,"MEAN_MOTION_DDOT":0},{"OBJECT_NAME":"STARLINK-3994","OBJECT_ID":"2022-052AM","EPOCH":"2025-07-31T04:34:12.168768","MEAN_MOTION":15.08833721,"ECCENTRICITY":0.0001506,"INCLINATION":53.2159,"RA_OF_ASC_NODE":183.4684,"ARG_OF_PERICENTER":82.3705,"MEAN_ANOMALY":277.7459,"EPHEMERIS_TYPE":0,"CLASSIFICATION_TYPE":"U","NORAD_CAT_ID":52633,"ELEMENT_SET_NO":999,"REV_AT_EPOCH":17756,"BSTAR":0.00010329,"MEAN_MOTION_DOT":1.356e-5,"MEAN_MOTION_DDOT":0},{"OBJECT_NAME":"STARLINK-3974","OBJECT_ID":"2022-052AN","EPOCH":"2025-07-31T12:52:19.328448","MEAN_MOTION":15.08841701,"ECCENTRICITY":0.0001828,"INCLINATION":53.2154,"RA_OF_ASC_NODE":181.9421,"ARG_OF_PERICENTER":68.2388,"MEAN_ANOMALY":291.8798,"EPHEMERIS_TYPE":0,"CLASSIFICATION_TYPE":"U","NORAD_CAT_ID":52634,"ELEMENT_SET_NO":999,"REV_AT_EPOCH":17760,"BSTAR":-4.1855e-5,"MEAN_MOTION_DOT":-9.54e-6,"MEAN_MOTION_DDOT":0},{"OBJECT_NAME":"STARLINK-3978","OBJECT_ID":"2022-052AP","EPOCH":"2025-07-31T07:19:47.302176","MEAN_MOTION":15.08836596,"ECCENTRICITY":0.0001267,"INCLINATION":53.2168,"RA_OF_ASC_NODE":172.9529,"ARG_OF_PERICENTER":87.659,"MEAN_ANOMALY":272.4547,"EPHEMERIS_TYPE":0,"CLASSIFICATION_TYPE":"U","NORAD_CAT_ID":52635,"ELEMENT_SET_NO":999,"REV_AT_EPOCH":17771,"BSTAR":-2.1875e-5,"MEAN_MOTION_DOT":-6.36e-6,"MEAN_MOTION_DDOT":0},{"OBJECT_NAME":"STARLINK-3967","OBJECT_ID":"2022-052AQ","EPOCH":"2025-07-31T07:55:35.621760","MEAN_MOTION":15.08807434,"ECCENTRICITY":0.0001461,"INCLINATION":53.2158,"RA_OF_ASC_NODE":182.8437,"ARG_OF_PERICENTER":63.9083,"MEAN_ANOMALY":296.206,"EPHEMERIS_TYPE":0,"CLASSIFICATION_TYPE":"U","NORAD_CAT_ID":52636,"ELEMENT_SET_NO":999,"REV_AT_EPOCH":17757,"BSTAR":-0.00024622,"MEAN_MOTION_DOT":-4.201e-5,"MEAN_MOTION_DDOT":0},{"OBJECT_NAME":"STARLINK-3961","OBJECT_ID":"2022-052AR","EPOCH":"2025-07-31T21:32:58.384608","MEAN_MOTION":15.08850811,"ECCENTRICITY":0.0001255,"INCLINATION":53.2159,"RA_OF_ASC_NODE":170.2947,"ARG_OF_PERICENTER":70.1301,"MEAN_ANOMALY":289.9826,"EPHEMERIS_TYPE":0,"CLASSIFICATION_TYPE":"U","NORAD_CAT_ID":52637,"ELEMENT_SET_NO":999,"REV_AT_EPOCH":17817,"BSTAR":-0.00019716,"MEAN_MOTION_DOT":-3.425e-5,"MEAN_MOTION_DDOT":0},{"OBJECT_NAME":"STARLINK-3941","OBJECT_ID":"2022-052AS","EPOCH":"2025-07-31T04:39:29.045952","MEAN_MOTION":15.08838733,"ECCENTRICITY":0.0001362,"INCLINATION":53.2159,"RA_OF_ASC_NODE":183.4517,"ARG_OF_PERICENTER":88.587,"MEAN_ANOMALY":271.5278,"EPHEMERIS_TYPE":0,"CLASSIFICATION_TYPE":"U","NORAD_CAT_ID":52638,"ELEMENT_SET_NO":999,"REV_AT_EPOCH":17836,"BSTAR":2.9251e-5,"MEAN_MOTION_DOT":1.78e-6,"MEAN_MOTION_DDOT":0},{"OBJECT_NAME":"STARLINK-3968","OBJECT_ID":"2022-052AT","EPOCH":"2025-07-31T14:55:30.936576","MEAN_MOTION":15.08841679,"ECCENTRICITY":0.0001355,"INCLINATION":53.2168,"RA_OF_ASC_NODE":171.5342,"ARG_OF_PERICENTER":77.1437,"MEAN_ANOMALY":282.9707,"EPHEMERIS_TYPE":0,"CLASSIFICATION_TYPE":"U","NORAD_CAT_ID":52639,"ELEMENT_SET_NO":999,"REV_AT_EPOCH":17856,"BSTAR":2.9369e-5,"MEAN_MOTION_DOT":1.8e-6,"MEAN_MOTION_DDOT":0},{"OBJECT_NAME":"STARLINK-3977","OBJECT_ID":"2022-052AU","EPOCH":"2025-07-31T07:25:05.128896","MEAN_MOTION":15.08838596,"ECCENTRICITY":0.0001347,"INCLINATION":53.2163,"RA_OF_ASC_NODE":172.9634,"ARG_OF_PERICENTER":84.986,"MEAN_ANOMALY":275.1286,"EPHEMERIS_TYPE":0,"CLASSIFICATION_TYPE":"U","NORAD_CAT_ID":52640,"ELEMENT_SET_NO":999,"REV_AT_EPOCH":17770,"BSTAR":-1.1684e-5,"MEAN_MOTION_DOT":-4.74e-6,"MEAN_MOTION_DDOT":0},{"OBJECT_NAME":"STARLINK-3991","OBJECT_ID":"2022-052AV","EPOCH":"2025-07-31T07:21:11.963808","MEAN_MOTION":15.08836758,"ECCENTRICITY":0.0001378,"INCLINATION":53.2158,"RA_OF_ASC_NODE":173.1498,"ARG_OF_PERICENTER":67.7308,"MEAN_ANOMALY":292.383,"EPHEMERIS_TYPE":0,"CLASSIFICATION_TYPE":"U","NORAD_CAT_ID":52641,"ELEMENT_SET_NO":999,"REV_AT_EPOCH":17771,"BSTAR":-1.9387e-5,"MEAN_MOTION_DOT":-5.96e-6,"MEAN_MOTION_DDOT":0},{"OBJECT_NAME":"STARLINK-3971","OBJECT_ID":"2022-052AW","EPOCH":"2025-07-31T07:09:11.137248","MEAN_MOTION":15.08839642,"ECCENTRICITY":0.0001375,"INCLINATION":53.216,"RA_OF_ASC_NODE":172.9874,"ARG_OF_PERICENTER":84.3469,"MEAN_ANOMALY":275.768,"EPHEMERIS_TYPE":0,"CLASSIFICATION_TYPE":"U","NORAD_CAT_ID":52642,"ELEMENT_SET_NO":999,"REV_AT_EPOCH":17770,"BSTAR":2.4091e-5,"MEAN_MOTION_DOT":9.6e-7,"MEAN_MOTION_DDOT":0},{"OBJECT_NAME":"STARLINK-3963","OBJECT_ID":"2022-052AX","EPOCH":"2025-07-31T14:30:23.917536","MEAN_MOTION":15.0883906,"ECCENTRICITY":0.0001424,"INCLINATION":53.217,"RA_OF_ASC_NODE":171.5851,"ARG_OF_PERICENTER":89.6506,"MEAN_ANOMALY":270.4649,"EPHEMERIS_TYPE":0,"CLASSIFICATION_TYPE":"U","NORAD_CAT_ID":52643,"ELEMENT_SET_NO":999,"REV_AT_EPOCH":17775,"BSTAR":2.0007e-5,"MEAN_MOTION_DOT":3.0e-7,"MEAN_MOTION_DDOT":0},{"OBJECT_NAME":"STARLINK-3985","OBJECT_ID":"2022-052AY","EPOCH":"2025-07-31T21:22:21.369504","MEAN_MOTION":15.0882615,"ECCENTRICITY":0.0001394,"INCLINATION":53.2165,"RA_OF_ASC_NODE":170.3274,"ARG_OF_PERICENTER":88.9196,"MEAN_ANOMALY":271.1956,"EPHEMERIS_TYPE":0,"CLASSIFICATION_TYPE":"U","NORAD_CAT_ID":52644,"ELEMENT_SET_NO":999,"REV_AT_EPOCH":17817,"BSTAR":0.00011591,"MEAN_MOTION_DOT":1.557e-5,"MEAN_MOTION_DDOT":0},{"OBJECT_NAME":"STARLINK-3973","OBJECT_ID":"2022-052AZ","EPOCH":"2025-07-31T21:06:28.926144","MEAN_MOTION":15.08837588,"ECCENTRICITY":0.0001429,"INCLINATION":53.2171,"RA_OF_ASC_NODE":170.4845,"ARG_OF_PERICENTER":85.8717,"MEAN_ANOMALY":274.2438,"EPHEMERIS_TYPE":0,"CLASSIFICATION_TYPE":"U","NORAD_CAT_ID":52645,"ELEMENT_SET_NO":999,"REV_AT_EPOCH":17817,"BSTAR":3.5167e-6,"MEAN_MOTION_DOT":-2.32e-6,"MEAN_MOTION_DDOT":0},{"OBJECT_NAME":"STARLINK-3832","OBJECT_ID":"2022-052BA","EPOCH":"2025-07-31T21:11:46.057344","MEAN_MOTION":15.0883992,"ECCENTRICITY":0.0001432,"INCLINATION":53.2165,"RA_OF_ASC_NODE":170.4007,"ARG_OF_PERICENTER":86.1139,"MEAN_ANOMALY":274.0017,"EPHEMERIS_TYPE":0,"CLASSIFICATION_TYPE":"U","NORAD_CAT_ID":52646,"ELEMENT_SET_NO":999,"REV_AT_EPOCH":17817,"BSTAR":2.4354e-5,"MEAN_MOTION_DOT":1.0e-6,"MEAN_MOTION_DDOT":0},{"OBJECT_NAME":"STARLINK-3846","OBJECT_ID":"2022-052BB","EPOCH":"2025-07-31T14:34:20.249184","MEAN_MOTION":15.08841198,"ECCENTRICITY":0.0001044,"INCLINATION":53.2174,"RA_OF_ASC_NODE":171.7063,"ARG_OF_PERICENTER":82.3733,"MEAN_ANOMALY":277.7378,"EPHEMERIS_TYPE":0,"CLASSIFICATION_TYPE":"U","NORAD_CAT_ID":52647,"ELEMENT_SET_NO":999,"REV_AT_EPOCH":17776,"BSTAR":4.6983e-5,"MEAN_MOTION_DOT":4.6e-6,"MEAN_MOTION_DDOT":0},{"OBJECT_NAME":"STARLINK-3854","OBJECT_ID":"2022-052BC","EPOCH":"2025-07-31T21:01:09.763680","MEAN_MOTION":15.08839663,"ECCENTRICITY":0.0001399,"INCLINATION":53.2155,"RA_OF_ASC_NODE":170.3953,"ARG_OF_PERICENTER":72.3436,"MEAN_ANOMALY":287.7709,"EPHEMERIS_TYPE":0,"CLASSIFICATION_TYPE":"U","NORAD_CAT_ID":52648,"ELEMENT_SET_NO":999,"REV_AT_EPOCH":17817,"BSTAR":3.8818e-5,"MEAN_MOTION_DOT":3.3e-6,"MEAN_MOTION_DDOT":0},{"OBJECT_NAME":"STARLINK-3868","OBJECT_ID":"2022-052BD","EPOCH":"2025-07-31T14:02:30.908544","MEAN_MOTION":15.08844054,"ECCENTRICITY":0.00013,"INCLINATION":53.2155,"RA_OF_ASC_NODE":171.5502,"ARG_OF_PERICENTER":89.6128,"MEAN_ANOMALY":270.5013,"EPHEMERIS_TYPE":0,"CLASSIFICATION_TYPE":"U","NORAD_CAT_ID":52649,"ELEMENT_SET_NO":999,"REV_AT_EPOCH":17776,"BSTAR":0.00030293,"MEAN_MOTION_DOT":4.537e-5,"MEAN_MOTION_DDOT":0},{"OBJECT_NAME":"STARLINK-3891","OBJECT_ID":"2022-052BE","EPOCH":"2025-07-31T21:13:06.401568","MEAN_MOTION":15.0883372,"ECCENTRICITY":0.0001729,"INCLINATION":53.217,"RA_OF_ASC_NODE":160.4636,"ARG_OF_PERICENTER":94.2084,"MEAN_ANOMALY":265.9105,"EPHEMERIS_TYPE":0,"CLASSIFICATION_TYPE":"U","NORAD_CAT_ID":52650,"ELEMENT_SET_NO":999,"REV_AT_EPOCH":17831,"BSTAR":-2.2941e-5,"MEAN_MOTION_DOT":-6.53e-6,"MEAN_MOTION_DDOT":0},{"OBJECT_NAME":"STARLINK-4004","OBJECT_ID":"2022-053A","EPOCH":"2025-07-31T20:20:49.028352","MEAN_MOTION":15.08838535,"ECCENTRICITY":0.0001479,"INCLINATION":53.2187,"RA_OF_ASC_NODE":65.5292,"ARG_OF_PERICENTER":80.7781,"MEAN_ANOMALY":279.3378,"EPHEMERIS_TYPE":0,"CLASSIFICATION_TYPE":"U","NORAD_CAT_ID":52656,"ELEMENT_SET_NO":999,"REV_AT_EPOCH":17777,"BSTAR":3.3405e-6,"MEAN_MOTION_DOT":-2.35e-6,"MEAN_MOTION_DDOT":0}]
